[{"OBJECT_NAME":"OBJECT B","OBJECT_ID":"2024-024B","EPOCH":"2026-03-09T23:03:07.239744","MEAN_MOTION":15.20764865,"ECCENTRICITY":0.00185665,"INCLINATION":97.3159,"RA_OF_ASC_NODE":138.1992,"ARG_OF_PERICENTER":118.5867,"MEAN_ANOMALY":241.724,"EPHEMERIS_TYPE":0,"CLASSIFICATION_TYPE":"U","NORAD_CAT_ID":58918,"ELEMENT_SET_NO":999,"REV_AT_EPOCH":11626,"BSTAR":0.00044590474,"MEAN_MOTION_DOT":9.803e-5,"MEAN_MOTION_DDOT":0},{"OBJECT_NAME":"YAOGAN-47","OBJECT_ID":"2025-289A","EPOCH":"2026-03-09T23:10:46.642368","MEAN_MOTION":15.23707396,"ECCENTRICITY":0.00012775,"INCLINATION":97.5108,"RA_OF_ASC_NODE":139.261,"ARG_OF_PERICENTER":63.9903,"MEAN_ANOMALY":296.1465,"EPHEMERIS_TYPE":0,"CLASSIFICATION_TYPE":"U","NORAD_CAT_ID":66988,"ELEMENT_SET_NO":999,"REV_AT_EPOCH":1382,"BSTAR":0.00032587728,"MEAN_MOTION_DOT":7.755e-5,"MEAN_MOTION_DDOT":0}]
